start=new Date('2023-04-12T00:00:00.000Z').valueOf();
sats=[{"MEAN_MOTION_DOT":"0.00032446","SEMIMAJOR_AXIS":"6925.192","MEAN_MOTION_DDOT":"0.0000000000000","OBJECT_TYPE":"PAYLOAD","APOAPSIS":"547.869","NORAD_CAT_ID":"48678","EPHEMERIS_TYPE":"0","MEAN_ELEMENT_THEORY":"SGP4","REV_AT_EPOCH":"10360","OBJECT_ID":"2021-044AS","ARG_OF_PERICENTER":"94.3425","GP_ID":"229914426","CENTER_NAME":"EARTH","BSTAR":"0.00218410000000","EPOCH":"2023-04-11T12:33:02.327904","MEAN_ANOMALY":"265.7698","RA_OF_ASC_NODE":"204.3547","TIME_SYSTEM":"UTC","ELEMENT_SET_NO":"999","INCLINATION":"53.0531","RCS_SIZE":"LARGE","TLE_LINE2":"2 48678  53.0531 204.3547 0001173  94.3425 265.7698 15.06451110103603","COUNTRY_CODE":"US","PERIAPSIS":"546.245","REF_FRAME":"TEME","OBJECT_NAME":"STARLINK-2615","PERIOD":"95.589","ECCENTRICITY":"0.00011730","DECAY_DATE":null,"LAUNCH_DATE":"2021-05-26","SITE":"AFETR","CLASSIFICATION_TYPE":"U","TLE_LINE1":"1 48678U 21044AS  23101.52294361  .00032446  00000-0  21841-2 0  9990","MEAN_MOTION":"15.06451110","FILE":"3885783"},{"REV_AT_EPOCH":"10360","MEAN_ELEMENT_THEORY":"SGP4","EPHEMERIS_TYPE":"0","NORAD_CAT_ID":"48679","BSTAR":"0.00193760000000","CENTER_NAME":"EARTH","GP_ID":"229914676","ARG_OF_PERICENTER":"57.5968","OBJECT_ID":"2021-044AT","SEMIMAJOR_AXIS":"6925.268","MEAN_MOTION_DOT":"0.00028718","APOAPSIS":"548.341","OBJECT_TYPE":"PAYLOAD","MEAN_MOTION_DDOT":"0.0000000000000","DECAY_DATE":null,"LAUNCH_DATE":"2021-05-26","ECCENTRICITY":"0.00017450","PERIOD":"95.590","MEAN_MOTION":"15.06426437","FILE":"3885783","TLE_LINE1":"1 48679U 21044AT  23101.51926077  .00028718  00000-0  19376-2 0  9993","CLASSIFICATION_TYPE":"U","SITE":"AFETR","RCS_SIZE":"LARGE","INCLINATION":"53.0518","ELEMENT_SET_NO":"999","RA_OF_ASC_NODE":"204.3756","TIME_SYSTEM":"UTC","MEAN_ANOMALY":"302.5189","EPOCH":"2023-04-11T12:27:44.130528","OBJECT_NAME":"STARLINK-2648","REF_FRAME":"TEME","PERIAPSIS":"545.924","COUNTRY_CODE":"US","TLE_LINE2":"2 48679  53.0518 204.3756 0001745  57.5968 302.5189 15.06426437103608"},{"RCS_SIZE":"LARGE","ELEMENT_SET_NO":"999","INCLINATION":"53.0535","EPOCH":"2023-04-11T17:09:01.410624","TIME_SYSTEM":"UTC","RA_OF_ASC_NODE":"203.4970","MEAN_ANOMALY":"278.5060","REF_FRAME":"TEME","OBJECT_NAME":"STARLINK-2649","PERIAPSIS":"546.206","TLE_LINE2":"2 48680  53.0535 203.4970 0001112  81.6055 278.5060 15.06477542103636","COUNTRY_CODE":"US","ECCENTRICITY":"0.00011120","DECAY_DATE":null,"LAUNCH_DATE":"2021-05-26","PERIOD":"95.587","TLE_LINE1":"1 48680U 21044AU  23101.71459966  .00030945  00000-0  20829-2 0  9995","MEAN_MOTION":"15.06477542","FILE":"3885919","CLASSIFICATION_TYPE":"U","SITE":"AFETR","SEMIMAJOR_AXIS":"6925.111","MEAN_MOTION_DOT":"0.00030945","OBJECT_TYPE":"PAYLOAD","APOAPSIS":"547.746","MEAN_MOTION_DDOT":"0.0000000000000","REV_AT_EPOCH":"10363","MEAN_ELEMENT_THEORY":"SGP4","EPHEMERIS_TYPE":"0","NORAD_CAT_ID":"48680","BSTAR":"0.00208290000000","CENTER_NAME":"EARTH","GP_ID":"229944537","OBJECT_ID":"2021-044AU","ARG_OF_PERICENTER":"81.6055"},{"OBJECT_TYPE":"PAYLOAD","APOAPSIS":"547.971","MEAN_MOTION_DDOT":"0.0000000000000","SEMIMAJOR_AXIS":"6925.171","MEAN_MOTION_DOT":"0.00027031","CENTER_NAME":"EARTH","BSTAR":"0.00182380000000","ARG_OF_PERICENTER":"86.3521","OBJECT_ID":"2021-044AV","GP_ID":"229890247","REV_AT_EPOCH":"10491","NORAD_CAT_ID":"48681","MEAN_ELEMENT_THEORY":"SGP4","EPHEMERIS_TYPE":"0","REF_FRAME":"TEME","OBJECT_NAME":"STARLINK-2725","TLE_LINE2":"2 48681  53.0528 174.6340 0001350  86.3521 273.7622 15.06457815104917","COUNTRY_CODE":"US","PERIAPSIS":"546.101","ELEMENT_SET_NO":"999","INCLINATION":"53.0528","RCS_SIZE":"LARGE","EPOCH":"2023-04-11T12:21:08.210304","RA_OF_ASC_NODE":"174.6340","TIME_SYSTEM":"UTC","MEAN_ANOMALY":"273.7622","CLASSIFICATION_TYPE":"U","TLE_LINE1":"1 48681U 21044AV  23101.51467836  .00027031  00000-0  18238-2 0  9992","MEAN_MOTION":"15.06457815","FILE":"3885665","SITE":"AFETR","ECCENTRICITY":"0.00013500","LAUNCH_DATE":"2021-05-26","DECAY_DATE":null,"PERIOD":"95.588"},{"OBJECT_NAME":"STARLINK-2743","REF_FRAME":"TEME","TLE_LINE2":"2 48682  53.0518 164.8727 0001269  63.0549 297.0570 15.06431623104985","COUNTRY_CODE":"US","PERIAPSIS":"546.238","INCLINATION":"53.0518","ELEMENT_SET_NO":"999","RCS_SIZE":"LARGE","TIME_SYSTEM":"UTC","RA_OF_ASC_NODE":"164.8727","MEAN_ANOMALY":"297.0570","EPOCH":"2023-04-11T10:41:37.019904","CLASSIFICATION_TYPE":"U","FILE":"3885841","MEAN_MOTION":"15.06431623","TLE_LINE1":"1 48682U 21044AW  23101.44556736  .00024987  00000-0  16890-2 0  9992","SITE":"AFETR","LAUNCH_DATE":"2021-05-26","DECAY_DATE":null,"ECCENTRICITY":"0.00012690","PERIOD":"95.590","APOAPSIS":"547.995","OBJECT_TYPE":"PAYLOAD","MEAN_MOTION_DDOT":"0.0000000000000","SEMIMAJOR_AXIS":"6925.252","MEAN_MOTION_DOT":"0.00024987","CENTER_NAME":"EARTH","BSTAR":"0.00168900000000","OBJECT_ID":"2021-044AW","ARG_OF_PERICENTER":"63.0549","GP_ID":"229921329","REV_AT_EPOCH":"10498","NORAD_CAT_ID":"48682","MEAN_ELEMENT_THEORY":"SGP4","EPHEMERIS_TYPE":"0"},{"GP_ID":"229943786","ARG_OF_PERICENTER":"99.3945","OBJECT_ID":"2021-044AX","BSTAR":"0.00098591000000","CENTER_NAME":"EARTH","EPHEMERIS_TYPE":"0","MEAN_ELEMENT_THEORY":"SGP4","NORAD_CAT_ID":"48683","REV_AT_EPOCH":"10421","MEAN_MOTION_DDOT":"0.0000000000000","APOAPSIS":"548.195","OBJECT_TYPE":"PAYLOAD","MEAN_MOTION_DOT":"0.00014438","SEMIMAJOR_AXIS":"6925.319","SITE":"AFETR","MEAN_MOTION":"15.06409788","FILE":"3885919","TLE_LINE1":"1 48683U 21044AX  23101.86574793  .00014438  00000-0  98591-3 0  9991","CLASSIFICATION_TYPE":"U","PERIOD":"95.592","LAUNCH_DATE":"2021-05-26","DECAY_DATE":null,"ECCENTRICITY":"0.00014600","PERIAPSIS":"546.172","COUNTRY_CODE":"US","TLE_LINE2":"2 48683  53.0518 162.8314 0001460  99.3945 260.7209 15.06409788104210","OBJECT_NAME":"STARLINK-2756","REF_FRAME":"TEME","TIME_SYSTEM":"UTC","MEAN_ANOMALY":"260.7209","RA_OF_ASC_NODE":"162.8314","EPOCH":"2023-04-11T20:46:40.621152","RCS_SIZE":"LARGE","INCLINATION":"53.0518","ELEMENT_SET_NO":"999"},{"SITE":"AFETR","TLE_LINE1":"1 48684U 21044AY  23101.68930267  .00026828  00000-0  18094-2 0  9999","FILE":"3885919","MEAN_MOTION":"15.06475810","CLASSIFICATION_TYPE":"U","PERIOD":"95.587","ECCENTRICITY":"0.00014640","DECAY_DATE":null,"LAUNCH_DATE":"2021-05-26","PERIAPSIS":"545.967","TLE_LINE2":"2 48684  53.0517 178.9692 0001464  84.3971 275.7185 15.06475810103974","COUNTRY_CODE":"US","REF_FRAME":"TEME","OBJECT_NAME":"STARLINK-2741","EPOCH":"2023-04-11T16:32:35.750688","RA_OF_ASC_NODE":"178.9692","TIME_SYSTEM":"UTC","MEAN_ANOMALY":"275.7185","RCS_SIZE":"LARGE","ELEMENT_SET_NO":"999","INCLINATION":"53.0517","GP_ID":"229945037","OBJECT_ID":"2021-044AY","ARG_OF_PERICENTER":"84.3971","BSTAR":"0.00180940000000","CENTER_NAME":"EARTH","EPHEMERIS_TYPE":"0","MEAN_ELEMENT_THEORY":"SGP4","NORAD_CAT_ID":"48684","REV_AT_EPOCH":"10397","MEAN_MOTION_DDOT":"0.0000000000000","OBJECT_TYPE":"PAYLOAD","APOAPSIS":"547.995","MEAN_MOTION_DOT":"0.00026828","SEMIMAJOR_AXIS":"6925.116"},{"MEAN_MOTION_DDOT":"0.0000000000000","APOAPSIS":"547.830","OBJECT_TYPE":"PAYLOAD","MEAN_MOTION_DOT":"0.00022734","SEMIMAJOR_AXIS":"6925.166","ARG_OF_PERICENTER":"74.3823","OBJECT_ID":"2021-044AZ","GP_ID":"229945271","CENTER_NAME":"EARTH","BSTAR":"0.00153770000000","NORAD_CAT_ID":"48685","EPHEMERIS_TYPE":"0","MEAN_ELEMENT_THEORY":"SGP4","REV_AT_EPOCH":"10417","TLE_LINE2":"2 48685  53.0525 164.1888 0001153  74.3823 285.7293 15.06459419104179","COUNTRY_CODE":"US","PERIAPSIS":"546.233","OBJECT_NAME":"STARLINK-2751","REF_FRAME":"TEME","RA_OF_ASC_NODE":"164.1888","TIME_SYSTEM":"UTC","MEAN_ANOMALY":"285.7293","EPOCH":"2023-04-11T13:42:02.691072","INCLINATION":"53.0525","ELEMENT_SET_NO":"999","RCS_SIZE":"LARGE","SITE":"AFETR","CLASSIFICATION_TYPE":"U","MEAN_MOTION":"15.06459419","FILE":"3885919","TLE_LINE1":"1 48685U 21044AZ  23101.57086448  .00022734  00000-0  15377-2 0  9994","PERIOD":"95.588","DECAY_DATE":null,"LAUNCH_DATE":"2021-05-26","ECCENTRICITY":"0.00011530"},{"EPOCH":"2023-04-11T13:33:27.369504","TIME_SYSTEM":"UTC","RA_OF_ASC_NODE":"169.4518","MEAN_ANOMALY":"258.7442","RCS_SIZE":"LARGE","ELEMENT_SET_NO":"999","INCLINATION":"53.0527","PERIAPSIS":"546.055","TLE_LINE2":"2 48686  53.0527 169.4518 0001361 101.3700 258.7442 15.06470554104096","COUNTRY_CODE":"US","REF_FRAME":"TEME","OBJECT_NAME":"STARLINK-2629","PERIOD":"95.588","ECCENTRICITY":"0.00013610","DECAY_DATE":null,"LAUNCH_DATE":"2021-05-26","SITE":"AFETR","TLE_LINE1":"1 48686U 21044BA  23101.56490011  .00023048  00000-0  15582-2 0  9996","MEAN_MOTION":"15.06470554","FILE":"3885783","CLASSIFICATION_TYPE":"U","MEAN_MOTION_DOT":"0.00023048","SEMIMAJOR_AXIS":"6925.132","MEAN_MOTION_DDOT":"0.0000000000000","OBJECT_TYPE":"PAYLOAD","APOAPSIS":"547.940","MEAN_ELEMENT_THEORY":"SGP4","EPHEMERIS_TYPE":"0","NORAD_CAT_ID":"48686","REV_AT_EPOCH":"10409","GP_ID":"229914427","ARG_OF_PERICENTER":"101.3700","OBJECT_ID":"2021-044BA","BSTAR":"0.00155820000000","CENTER_NAME":"EARTH"},{"EPHEMERIS_TYPE":"0","MEAN_ELEMENT_THEORY":"SGP4","NORAD_CAT_ID":"48687","REV_AT_EPOCH":"10428","GP_ID":"229944286","OBJECT_ID":"2021-044BB","ARG_OF_PERICENTER":"73.0016","BSTAR":"0.00036475000000","CENTER_NAME":"EARTH","MEAN_MOTION_DOT":"0.00005156","SEMIMAJOR_AXIS":"6925.337","MEAN_MOTION_DDOT":"0.0000000000000","APOAPSIS":"549.034","OBJECT_TYPE":"PAYLOAD","PERIOD":"95.592","LAUNCH_DATE":"2021-05-26","DECAY_DATE":null,"ECCENTRICITY":"0.00026460","SITE":"AFETR","MEAN_MOTION":"15.06403786","FILE":"3885919","TLE_LINE1":"1 48687U 21044BB  23101.87172892  .00005156  00000-0  36475-3 0  9990","CLASSIFICATION_TYPE":"U","RA_OF_ASC_NODE":"157.7946","MEAN_ANOMALY":"287.1263","TIME_SYSTEM":"UTC","EPOCH":"2023-04-11T20:55:17.378688","RCS_SIZE":"LARGE","INCLINATION":"53.0526","ELEMENT_SET_NO":"999","PERIAPSIS":"545.370","TLE_LINE2":"2 48687  53.0526 157.7946 0002646  73.0016 287.1263 15.06403786104284","COUNTRY_CODE":"US","OBJECT_NAME":"STARLINK-2627","REF_FRAME":"TEME"}];
